NORAD_CAT_ID,OBJECT_NAME,OBJECT_TYPE,EPOCH,MEAN_MOTION,ECCENTRICITY,INCLINATION,RA_OF_ASC_NODE,ARG_OF_PERICENTER,MEAN_ANOMALY,BSTAR,MEAN_MOTION_DOT,MEAN_MOTION_DDOT,TLE_LINE0,TLE_LINE1,TLE_LINE2,SEMIMAJOR_AXIS,PERIOD,APOGEE,PERIGEE,DECAYED
52707.0,STARLINK-4007,PAYLOAD,2023-05-07 16:07:07,15.08840985,0.0001375,53.2161,109.3521,81.8147,278.3001,3.7425e-05,3.08e-06,0.0,0 STARLINK-4007,1 52707U 22053BD  23127.67160941  .00000308  00000-0  37425-4 0  9998,2 52707  53.2161 109.3521 0001375  81.8147 278.3001 15.08840985 54825,6917.877,95.437,540.694,538.791,0.0
52707.0,STARLINK-4007,PAYLOAD,2023-05-08 04:50:12,15.0883429,0.0001252,53.2161,106.9734,88.0166,272.0969,-2.4332e-05,-6.75e-06,0.0,0 STARLINK-4007,1 52707U 22053BD  23128.20153661 -.00000675  00000-0 -24332-4 0  9991,2 52707  53.2161 106.9734 0001252  88.0166 272.0969 15.08834290 54420,6917.898,95.438,540.629,538.897,0.0
52707.0,STARLINK-4007,PAYLOAD,2023-05-08 15:57:54,15.0884138,0.0001296,53.2168,104.8916,89.1167,270.9974,4.247e-05,3.88e-06,0.0,0 STARLINK-4007,1 52707U 22053BD  23128.66521061  .00000388  00000-0  42470-4 0  9996,2 52707  53.2168 104.8916 0001296  89.1167 270.9974 15.08841380 54978,6917.876,95.437,540.638,538.845,0.0
52707.0,STARLINK-4007,PAYLOAD,2023-05-09 04:40:58,15.08849174,0.0001251,53.2164,102.5137,90.5693,269.5442,0.00010028,1.309e-05,0.0,0 STARLINK-4007,1 52707U 22053BD  23129.19512391  .00001309  00000-0  10028-3 0  9998,2 52707  53.2164 102.5137 0001251  90.5693 269.5442 15.08849174 55058,6917.852,95.437,540.583,538.852,0.0
52707.0,STARLINK-4007,PAYLOAD,2023-05-10 04:31:46,15.08837204,0.000129,53.2172,98.0539,90.6014,269.5126,0.00010295,1.351e-05,0.0,0 STARLINK-4007,1 52707U 22053BD  23130.18873354  .00001351  00000-0  10295-3 0  9991,2 52707  53.2172  98.0539 0001290  90.6014 269.5126 15.08837204 55200,6917.889,95.438,540.646,538.862,0.0
52707.0,STARLINK-4007,PAYLOAD,2023-05-11 04:22:33,15.08846026,0.0001022,53.2162,93.5946,91.0332,269.0777,8.5739e-05,1.077e-05,0.0,0 STARLINK-4007,1 52707U 22053BD  23131.18232774  .00001077  00000-0  85739-4 0  9998,2 52707  53.2162  93.5946 0001022  91.0332 269.0777 15.08846026 55357,6917.862,95.437,540.434,539.02,0.0
52707.0,STARLINK-4007,PAYLOAD,2023-05-12 04:13:21,15.08826281,9.99e-05,53.217,89.1344,88.5609,271.5498,4.2154e-05,3.83e-06,0.0,0 STARLINK-4007,1 52707U 22053BD  23132.17594503  .00000383  00000-0  42154-4 0  9992,2 52707  53.2170  89.1344 0000999  88.5609 271.5498 15.08826281 55022,6917.922,95.438,540.478,539.096,0.0
52707.0,STARLINK-4007,PAYLOAD,2023-05-13 04:04:07,15.08851842,0.000101,53.2177,84.6734,94.6189,265.4918,0.00014992,2.1e-05,0.0,0 STARLINK-4007,1 52707U 22053BD  23133.16952897  .00002100  00000-0  14992-3 0  9993,2 52707  53.2177  84.6734 0001010  94.6189 265.4918 15.08851842 55174,6917.844,95.437,540.408,539.01,0.0
52707.0,STARLINK-4007,PAYLOAD,2023-05-14 03:54:55,15.08837987,0.0001293,53.2177,80.2183,120.4646,239.6474,8.1179e-05,1.004e-05,0.0,0 STARLINK-4007,1 52707U 22053BD  23134.16314494  .00001004  00000-0  81179-4 0  9993,2 52707  53.2177  80.2183 0001293 120.4646 239.6474 15.08837987 55324,6917.887,95.438,540.646,538.857,0.0
52707.0,STARLINK-4007,PAYLOAD,2023-05-15 03:45:41,15.08855948,0.00012,53.2165,75.7532,95.6107,264.5022,0.00018418,2.646e-05,0.0,0 STARLINK-4007,1 52707U 22053BD  23135.15673169  .00002646  00000-0  18418-3 0  9998,2 52707  53.2165  75.7532 0001200  95.6107 264.5022 15.08855948 55470,6917.832,95.437,540.527,538.867,0.0
52707.0,STARLINK-4007,PAYLOAD,2023-05-15 13:18:01,15.08841139,0.0001454,53.2154,73.9724,78.8805,281.2351,0.00015735,2.217e-05,0.0,0 STARLINK-4007,1 52707U 22053BD  23135.55418054  .00002217  00000-0  15735-3 0  9995,2 52707  53.2154  73.9724 0001454  78.8805 281.2351 15.08841139 55535,6917.877,95.437,540.748,538.736,0.0
52707.0,STARLINK-4007,PAYLOAD,2023-05-16 02:01:06,15.08834857,0.0001463,53.2188,71.5841,97.8352,262.2806,-1.6497e-06,-3.14e-06,0.0,0 STARLINK-4007,1 52707U 22053BD  23136.08410433 -.00000314  00000-0 -16497-5 0  9993,2 52707  53.2188  71.5841 0001463  97.8352 262.2806 15.08834857 55616,6917.896,95.438,540.773,538.749,0.0
52707.0,STARLINK-4007,PAYLOAD,2023-05-16 05:11:52,15.08834977,0.0001414,53.2184,70.99,98.3675,261.7477,8.0335e-07,-2.75e-06,0.0,0 STARLINK-4007,1 52707U 22053BD  23136.21658471 -.00000275  00000-0  80335-6 0  9992,2 52707  53.2184  70.9900 0001414  98.3675 261.7477 15.08834977 56118,6917.896,95.438,540.739,538.783,0.0
52707.0,STARLINK-4007,PAYLOAD,2023-05-17 01:51:52,15.08851561,0.0001409,53.218,67.1274,90.516,269.5993,0.00010775,1.428e-05,0.0,0 STARLINK-4007,1 52707U 22053BD  23137.07769636  .00001428  00000-0  10775-3 0  9991,2 52707  53.2180  67.1274 0001409  90.5160 269.5993 15.08851561 55760,6917.845,95.437,540.685,538.735,0.0
52707.0,STARLINK-4007,PAYLOAD,2023-05-17 05:02:39,15.08853022,0.0001399,53.2186,66.5326,90.1534,269.9619,0.00021578,3.149e-05,0.0,0 STARLINK-4007,1 52707U 22053BD  23137.21017520  .00003149  00000-0  21578-3 0  9990,2 52707  53.2186  66.5326 0001399  90.1534 269.9619 15.08853022 56265,6917.841,95.437,540.673,538.738,0.0
52707.0,STARLINK-4007,PAYLOAD,2023-05-18 01:42:40,15.08836316,0.0001213,53.217,62.6622,88.99,271.1231,8.9765e-05,1.141e-05,0.0,0 STARLINK-4007,1 52707U 22053BD  23138.07130423  .00001141  00000-0  89765-4 0  9996,2 52707  53.2170  62.6622 0001213  88.9900 271.1231 15.08836316 55914,6917.892,95.438,540.596,538.918,0.0
52707.0,STARLINK-4007,PAYLOAD,2023-05-18 04:53:27,15.08833484,0.0001417,53.2179,62.0695,87.8699,272.2456,2.6257e-05,1.3e-06,0.0,0 STARLINK-4007,1 52707U 22053BD  23138.20378650  .00000130  00000-0  26257-4 0  9991,2 52707  53.2179  62.0695 0001417  87.8699 272.2456 15.08833484 56416,6917.9,95.438,540.746,538.785,0.0
52707.0,STARLINK-4007,PAYLOAD,2023-05-19 19:02:42,15.08838186,0.0001286,53.218,54.9353,103.5847,256.5289,0.00012412,1.688e-05,0.0,0 STARLINK-4007,1 52707U 22053BD  23139.79354490  .00001688  00000-0  12412-3 0  9998,2 52707  53.2180  54.9353 0001286 103.5847 256.5289 15.08838186 56653,6917.886,95.438,540.641,538.861,0.0
52707.0,STARLINK-4007,PAYLOAD,2023-05-20 01:24:14,15.08842132,0.0001099,53.2179,53.7476,100.857,259.2545,0.00011997,1.622e-05,0.0,0 STARLINK-4007,1 52707U 22053BD  23140.05850294  .00001622  00000-0  11997-3 0  9997,2 52707  53.2179  53.7476 0001099 100.8570 259.2545 15.08842132 56212,6917.874,95.437,540.499,538.979,0.0
52707.0,STARLINK-4007,PAYLOAD,2023-05-20 23:39:37,15.08855437,0.0001236,53.2183,49.5866,108.8682,251.2445,0.00026228,3.89e-05,0.0,0 STARLINK-4007,1 52707U 22053BD  23140.98585381  .00003890  00000-0  26228-3 0  9993,2 52707  53.2183  49.5866 0001236 108.8682 251.2445 15.08855437 56356,6917.833,95.437,540.553,538.843,0.0
52707.0,STARLINK-4007,PAYLOAD,2023-05-21 02:50:23,15.08861982,0.000128,53.2189,48.9927,110.5634,249.5496,0.00035145,5.313e-05,0.0,0 STARLINK-4007,1 52707U 22053BD  23141.11832997  .00005313  00000-0  35145-3 0  9997,2 52707  53.2189  48.9927 0001280 110.5634 249.5496 15.08861982 56852,6917.813,95.436,540.564,538.793,0.0
52707.0,STARLINK-4007,PAYLOAD,2023-05-21 17:08:52,15.08838158,0.0001579,53.2181,46.317,87.4077,272.7096,-4.7012e-05,-1.036e-05,0.0,0 STARLINK-4007,1 52707U 22053BD  23141.71450167 -.00001036  00000-0 -47012-4 0  9995,2 52707  53.2181  46.3170 0001579  87.4077 272.7096 15.08838158 56460,6917.886,95.438,540.843,538.659,0.0
52707.0,STARLINK-4007,PAYLOAD,2023-05-21 20:19:39,15.08830643,6.12e-05,53.2189,45.7218,80.6688,279.4374,-0.0001604,-2.839e-05,0.0,0 STARLINK-4007,1 52707U 22053BD  23141.84698403 -.00002839  00000-0 -16040-3 0  9994,2 52707  53.2189  45.7218 0000612  80.6688 279.4374 15.08830643 56963,6917.909,95.438,540.197,539.351,0.0
52707.0,STARLINK-4007,PAYLOAD,2023-05-22 01:05:49,15.08825464,0.0001031,53.2182,44.8264,76.515,283.5957,-0.00024836,-4.237e-05,0.0,0 STARLINK-4007,1 52707U 22053BD  23142.04570748 -.00004237  00000-0 -24836-3 0  9994,2 52707  53.2182  44.8264 0001031  76.5150 283.5957 15.08825464 56510,6917.925,95.438,540.503,539.077,0.0
52707.0,STARLINK-4007,PAYLOAD,2023-05-22 10:38:08,15.08833179,0.0001042,53.2186,43.0412,75.5448,284.5659,6.3227e-06,-1.87e-06,0.0,0 STARLINK-4007,1 52707U 22053BD  23142.44314936 -.00000187  00000-0  63227-5 0  9991,2 52707  53.2186  43.0412 0001042  75.5448 284.5659 15.08833179 57053,6917.901,95.438,540.487,539.045,0.0
52707.0,STARLINK-4007,PAYLOAD,2023-05-22 20:10:26,15.08842172,0.0001018,53.2186,41.2575,82.7194,277.3914,0.0003796,5.759e-05,0.0,0 STARLINK-4007,1 52707U 22053BD  23142.84058869  .00005759  00000-0  37960-3 0  9997,2 52707  53.2186  41.2575 0001018  82.7194 277.3914 15.08842172 57118,6917.874,95.437,540.443,539.035,0.0
52707.0,STARLINK-4007,PAYLOAD,2023-05-23 02:31:59,15.08853235,0.0001128,53.2181,40.0677,74.9497,285.162,0.00094949,0.00014861,0.0,0 STARLINK-4007,1 52707U 22053BD  23143.10554899  .00014861  00000-0  94949-3 0  9995,2 52707  53.2181  40.0677 0001128  74.9497 285.1620 15.08853235 56677,6917.84,95.437,540.485,538.925,0.0
52707.0,STARLINK-4007,PAYLOAD,2023-05-24 02:22:46,15.08854065,9.35e-05,53.2179,35.6116,66.3854,293.7236,0.00051304,7.89e-05,0.0,0 STARLINK-4007,1 52707U 22053BD  23144.09914684  .00007890  00000-0  51304-3 0  9998,2 52707  53.2179  35.6116 0000935  66.3854 293.7236 15.08854065 56826,6917.837,95.437,540.349,539.056,0.0
52707.0,STARLINK-4007,PAYLOAD,2023-05-25 16:32:01,15.08844642,0.0001114,53.2188,28.4743,80.4697,279.6421,0.00028983,4.328e-05,0.0,0 STARLINK-4007,1 52707U 22053BD  23145.68891066  .00004328  00000-0  28983-3 0  9992,2 52707  53.2188  28.4743 0001114  80.4697 279.6421 15.08844642 57060,6917.866,95.437,540.502,538.961,0.0
52707.0,STARLINK-4007,PAYLOAD,2023-05-25 21:18:11,15.08846567,0.0001233,53.2184,27.5813,90.3585,269.7548,0.00034767,5.251e-05,0.0,0 STARLINK-4007,1 52707U 22053BD  23145.88762972  .00005251  00000-0  34767-3 0  9990,2 52707  53.2184  27.5813 0001233  90.3585 269.7548 15.08846567 57576,6917.86,95.437,540.578,538.872,0.0
